ORBCOMM FM05            
1 25117U 97084F   25177.47488736  .00000913  00000+0  29453-3 0  9991
2 25117  45.0160 323.4603 0003026 235.0837 124.9731 14.45967505441950
ORBCOMM FM06            
1 25118U 97084G   25177.47471028  .00000812  00000+0  26555-3 0  9996
2 25118  45.0154 323.1892 0002115 223.3438 182.1713 14.46098521442878
ORBCOMM FM07            
1 25119U 97084H   25177.41031300  .00000840  00000+0  27338-3 0  9997
2 25119  45.0147 324.2668 0003873 235.2598 124.7889 14.46095614442859
ORBCOMM FM04            
1 25159U 98007C   25177.38182066  .00000540  00000+0  23476-3 0  9995
2 25159 107.9644 157.7150 0041831 232.1580 127.5771 14.34771147425548
ORBCOMM FM17            
1 25413U 98046A   25177.44825435  .00000307  00000+0  15579-3 0  9998
2 25413  44.9926 213.8979 0005175 260.3350  99.6913 14.35107153404507
ORBCOMM FM18            
1 25414U 98046B   25177.58635700  .00000672  00000+0  26383-3 0  9998
2 25414  44.9920 130.3914 0006633 326.2070  33.8355 14.38573944405605
ORBCOMM FM19            
1 25415U 98046C   25177.63859894  .00000660  00000+0  26090-3 0  9999
2 25415  44.9932 132.1575 0005473 321.3136 218.6858 14.38382304405566
